1 45134U 20008D   23067.84409895 -.00000068  00000-0 -23174-3 0  9998
2 45134  87.8694 273.9924 0001378  84.3699 275.7586 13.10375259152841
1 45134U 20008D   23068.07319300 -.00002788  00000-0 -80276-2 0  9991
2 45134  87.8690 273.9460 0001907  84.3030 275.8315 13.10355361152875
1 45134U 20008D   23068.83675224 -.00000270  00000-0 -80929-3 0  9995
2 45134  87.8693 273.7936 0001293  84.6878 275.4397 13.10372616152109
1 45134U 20008D   23068.83675224 -.00000270  00000-0 -80929-3 0  9995
2 45134  87.8693 273.7936 0001293  84.6878 275.4397 13.10372616152974
1 45134U 20008D   23069.82939899 -.00000345  00000-0 -10246-2 0  9993
2 45134  87.8686 273.5945 0001381  86.2137 273.9149 13.10372463152235
1 45134U 20008D   23070.05847358  .00001656  00000-0  47076-2 0  9993
2 45134  87.8686 273.5485 0001731  85.0553 275.0772 13.10362189153131
1 45134U 20008D   23070.51662047  .00001634  00000-0  46449-2 0  9993
2 45134  87.8686 273.4568 0001522  78.7111 281.4187 13.10362353152323
1 45134U 20008D   23070.59297560 -.00000525  00000-0 -15395-2 0  9991
2 45134  87.8687 273.4416 0001402  87.4904 272.6384 13.10373847152332
1 45134U 20008D   23070.59297560 -.00000525  00000-0 -15395-2 0  9991
2 45134  87.8687 273.4416 0001402  87.4904 272.6384 13.10373847153209
1 45134U 20008D   23071.05112041 -.00000627  00000-0 -18317-2 0  9993
2 45134  87.8686 273.3497 0001396  87.8543 272.2744 13.10373290152398
1 45134U 20008D   23071.58562246 -.00000611  00000-0 -17873-2 0  9996
2 45134  87.8687 273.2425 0001385  88.1854 271.9432 13.10372914152466
1 45134U 20008D   23072.04376754 -.00000637  00000-0 -18617-2 0  9990
2 45134  87.8687 273.1507 0001379  88.8203 271.3082 13.10372565153394
1 45134U 20008D   23072.50191308 -.00000586  00000-0 -17158-2 0  9993
2 45134  87.8689 273.0589 0001373  91.2826 268.8459 13.10371729152588
1 45134U 20008D   23073.49456000 -.00000250  00000-0 -75256-3 0  9997
2 45134  87.8683 272.8599 0001333  90.1018 270.0262 13.10372695153588
1 45134U 20008D   23074.48720739 -.00000046  00000-0 -16867-3 0  9996
2 45134  87.8682 272.6607 0001386  92.5063 267.6223 13.10373049152840
1 45134U 20008D   23074.79263750 -.00000039  00000-0 -14811-3 0  9994
2 45134  87.8682 272.5995 0001380  92.3352 267.7933 13.10373326152883
1 45134U 20008D   23074.79263750 -.00000039  00000-0 -14811-3 0  9994
2 45134  87.8682 272.5995 0001380  92.3352 267.7933 13.10373326153750
1 45134U 20008D   23075.47985480 -.00000087  00000-0 -28580-3 0  9992
2 45134  87.8678 272.4622 0001421  91.0382 269.0909 13.10374687152978
1 45134U 20008D   23075.78528441 -.00000059  00000-0 -20672-3 0  9999
2 45134  87.8681 272.4010 0001417  91.2076 268.9214 13.10375279153011
1 45134U 20008D   23076.09071521 -.00000062  00000-0 -21411-3 0  9992
2 45134  87.8681 272.3397 0001394  91.4530 268.6757 13.10374505153929
1 45134U 20008D   23076.47250281  .00000017  00000-0  11457-4 0  9994
2 45134  87.8682 272.2632 0001391  91.6951 268.4335 13.10374510153103
1 45134U 20008D   23076.77793254  .00000081  00000-0  19677-3 0  9991
2 45134  87.8683 272.2020 0001391  91.8588 268.2698 13.10374976153143
1 45134U 20008D   23077.54150765  .00000260  00000-0  70842-3 0  9991
2 45134  87.8683 272.0489 0001409  92.4597 267.6691 13.10374966154110
1 45134U 20008D   23077.92329488  .00000308  00000-0  84547-3 0  9993
2 45134  87.8681 271.9723 0001387  92.3503 267.7783 13.10375476153296
1 45134U 20008D   23078.53415461  .00000469  00000-0  13062-2 0  9999
2 45134  87.8680 271.8499 0001413  92.5668 267.5621 13.10375632153370
1 45134U 20008D   23078.76322697  .00000499  00000-0  13936-2 0  9995
2 45134  87.8680 271.8039 0001415  92.8110 267.3179 13.10375703154272
1 45134U 20008D   23078.83958394  .00000515  00000-0  14400-2 0  9998
2 45134  87.8679 271.7886 0001419  92.8074 267.3216 13.10376423153419
1 45134U 20008D   23079.52680057  .00000594  00000-0  16646-2 0  9994
2 45134  87.8680 271.6508 0001428  93.0094 267.1197 13.10376788153506
1 45134U 20008D   23079.83223000  .00000610  00000-0  17122-2 0  9998
2 45134  87.8681 271.5897 0001416  92.9814 267.1475 13.10376939153543
1 45134U 20008D   23079.83223000  .00000610  00000-0  17122-2 0  9998
2 45134  87.8681 271.5897 0001416  92.9814 267.1475 13.10376939154410
1 45134U 20008D   23080.51944552  .00000664  00000-0  18659-2 0  9992
2 45134  87.8682 271.4519 0001437  93.3681 266.7611 13.10377813153633
1 45134U 20008D   23080.90123201  .00000642  00000-0  18036-2 0  9990
2 45134  87.8684 271.3754 0001425  93.8336 266.2954 13.10377831153684
1 45134U 20008D   23081.05394628  .00000651  00000-0  18293-2 0  9995
2 45134  87.8683 271.3448 0001426  93.6970 266.4320 13.10378103154577
1 45134U 20008D   23081.89387396  .00000725  00000-0  20390-2 0  9994
2 45134  87.8687 271.1766 0001438  94.5891 265.5400 13.10379817153815
1 45134U 20008D   23082.50473134  .00000624  00000-0  17521-2 0  9999
2 45134  87.8686 271.0540 0001413  93.6361 266.4928 13.10379597154763
1 45134U 20008D   23082.58108842  .00000574  00000-0  16070-2 0  9990
2 45134  87.8687 271.0387 0001419  94.0265 266.1025 13.10379771153901
1 45134U 20008D   23082.88651584  .00000611  00000-0  17134-2 0  9993
2 45134  87.8686 270.9775 0001437  94.6005 265.5286 13.10380659153940
1 45134U 20008D   23083.57372907  .00000413  00000-0  11462-2 0  9997
2 45134  87.8685 270.8398 0001452  94.9381 265.1912 13.10380921154031
1 45134U 20008D   23083.57372907  .00000413  00000-0  11462-2 0  9997
2 45134  87.8685 270.8398 0001452  94.9381 265.1912 13.10380921154907
1 45134U 20008D   23083.87915598  .00000448  00000-0  12456-2 0  9991
2 45134  87.8686 270.7787 0001466  95.7027 264.4267 13.10381800154070
1 45134U 20008D   23084.79543892  .00000302  00000-0  82848-3 0  9999
2 45134  87.8687 270.5951 0001499  96.4364 263.6934 13.10381944155061
1 45134U 20008D   23084.87179622  .00000215  00000-0  57856-3 0  9998
2 45134  87.8687 270.5799 0001487  96.6978 263.4318 13.10381590154207
1 45134U 20008D   23085.48265999 -.00000706  00000-0 -20599-2 0  9999
2 45134  87.8689 270.4574 0001502  96.8217 263.3082 13.10375356155150
1 45134U 20008D   23085.94080278 -.00000655  00000-0 -19117-2 0  9992
2 45134  87.8689 270.3656 0001509  96.9513 263.1786 13.10375506154343
1 45134U 20008D   23086.55166166 -.00000676  00000-0 -19736-2 0  9991
2 45134  87.8690 270.2431 0001526  96.9305 263.1996 13.10373911155299
1 45134U 20008D   23086.78073316 -.00000629  00000-0 -18380-2 0  9992
2 45134  87.8690 270.1972 0001531  97.0162 263.1140 13.10374201154458
1 45134U 20008D   23087.54430881 -.00000310  00000-0 -92577-3 0  9999
2 45134  87.8690 270.0442 0001526  97.2418 262.8883 13.10370633154555
1 45134U 20008D   23087.77338096 -.00000297  00000-0 -88654-3 0  9994
2 45134  87.8690 269.9983 0001525  97.5192 262.6109 13.10370865154582
1 45134U 20008D   23087.77338096 -.00000297  00000-0 -88654-3 0  9994
2 45134  87.8690 269.9983 0001525  97.5192 262.6109 13.10370865155459
1 45134U 20008D   23088.53695694 -.00000478  00000-0 -14072-2 0  9992
2 45134  87.8689 269.8453 0001533  98.0740 262.0561 13.10369964154680
1 45134U 20008D   23088.76602975 -.00000499  00000-0 -14667-2 0  9990
2 45134  87.8690 269.7994 0001536  98.1571 261.9730 13.10369768154719
1 45134U 20008D   23088.99510202 -.00000521  00000-0 -15298-2 0  9993
2 45134  87.8689 269.7536 0001539  98.3971 261.7330 13.10370229155616
1 45134U 20008D   23089.52960577 -.00000531  00000-0 -15589-2 0  9991
2 45134  87.8691 269.6466 0001548  98.6847 261.4456 13.10369207154816
1 45134U 20008D   23090.44589842 -.00000664  00000-0 -19374-2 0  9999
2 45134  87.8690 269.4633 0001577  99.1260 261.0046 13.10368526155800
1 45134U 20008D   23091.51490731 -.00000555  00000-0 -16252-2 0  9997
2 45134  87.8688 269.2486 0001568  99.5992 260.5312 13.10367478155071
1 45134U 20008D   23091.51490731 -.00000555  00000-0 -16252-2 0  9997
2 45134  87.8688 269.2486 0001568  99.5992 260.5312 13.10367478155947
1 45134U 20008D   23091.82033898 -.00000607  00000-0 -17745-2 0  9994
2 45134  87.8687 269.1874 0001576  99.7221 260.4085 13.10367251155116
1 45134U 20008D   23092.50756048 -.00000514  00000-0 -15101-2 0  9990
2 45134  87.8686 269.0497 0001592  99.8931 260.2376 13.10366169155200
1 45134U 20008D   23092.81299165 -.00000449  00000-0 -13223-2 0  9996
2 45134  87.8686 268.9885 0001596 100.2336 259.8972 13.10366724156113
1 45134U 20008D   23092.88934968 -.00000446  00000-0 -13148-2 0  9993
2 45134  87.8687 268.9732 0001595 100.2786 259.8521 13.10366596155254
1 45134U 20008D   23093.50021301 -.00000284  00000-0 -84957-3 0  9998
2 45134  87.8687 268.8507 0001601 100.2704 259.8603 13.10366589155333
1 45134U 20008D   23093.88200380 -.00000230  00000-0 -69388-3 0  9997
2 45134  87.8687 268.7742 0001611 100.6442 259.4867 13.10365544155380
1 45134U 20008D   23094.03471938 -.00000228  00000-0 -68937-3 0  9990
2 45134  87.8687 268.7436 0001611 100.6735 259.4574 13.10366192156279
1 45134U 20008D   23094.49286744 -.00000056  00000-0 -19595-3 0  9994
2 45134  87.8687 268.6518 0001625 100.8107 259.3204 13.10365855155463
1 45134U 20008D   23094.87465833 -.00000118  00000-0 -37528-3 0  9999
2 45134  87.8688 268.5753 0001614 101.0132 259.1177 13.10365398155518
1 45134U 20008D   23095.56187999  .00000109  00000-0  27646-3 0  9998
2 45134  87.8688 268.4376 0001621 100.8204 259.3105 13.10366044155605
1 45134U 20008D   23095.56187999  .00000109  00000-0  27646-3 0  9998
2 45134  87.8688 268.4376 0001621 100.8204 259.3105 13.10366044156471
1 45134U 20008D   23095.86731242  .00000199  00000-0  53405-3 0  9998
2 45134  87.8688 268.3764 0001632 101.0929 259.0382 13.10365631155643
1 45134U 20008D   23096.47817298  .00000665  00000-0  18698-2 0  9994
2 45134  87.8689 268.2539 0001598 101.5328 258.5979 13.10368592155726
1 45134U 20008D   23096.70724648  .00000679  00000-0  19086-2 0  9993
2 45134  87.8690 268.2080 0001602 101.5656 258.5651 13.10368933156625
1 45134U 20008D   23097.47082446  .00000733  00000-0  20630-2 0  9999
2 45134  87.8691 268.0552 0001598 100.7584 259.3723 13.10369808155858
